     2.100          NAVIGATION                              RINEX VERSION / TYPE
fic2rin                                 10/28/2012 00:24:14 PGM / RUN BY / DATE
                                                            END OF HEADER
 8 12 10 27  6  0  0.0  .257976353168D-05  .227373675443D-12  .000000000000D+00
     .480000000000D+02 -.715937500000D+02  .365515225176D-08  .129679873989D+01
    -.341981649399D-05  .127743649064D-01  .105798244476D-04  .515364055061D+04
     .540000000000D+06  .186264514923D-08 -.619225777148D+00  .150874257088D-06
     .998373794550D+00  .197218750000D+03 -.290974672510D+01 -.762746057149D-08
    -.368229623956D-09  .100000000000D+01  .171100000000D+04  .000000000000D+00
     .240000000000D+01  .000000000000D+00 -.419095158577D-08  .480000000000D+02
     .532806000000D+06  .400000000000D+01
 9 12 10 27  6  0  0.0  .195340719074D-03  .272848410532D-11  .000000000000D+00
     .660000000000D+02 -.799062500000D+02  .390087677289D-08  .135522282962D+01
    -.443868339062D-05  .172232923796D-01  .963546335697D-05  .515366467285D+04
     .540000000000D+06 -.670552253723D-07 -.730469097599D+00 -.430271029472D-06
     .984564299924D+00  .208718750000D+03  .164742914720D+01 -.779068165602D-08
    -.211080220910D-09  .100000000000D+01  .171100000000D+04  .000000000000D+00
     .340000000000D+01  .000000000000D+00 -.558793544769D-08  .660000000000D+02
     .532806000000D+06  .400000000000D+01
10 12 10 27  6  0  0.0 -.565252266824D-04 -.125055521494D-11  .000000000000D+00
     .140000000000D+02  .920625000000D+02  .488484633060D-08 -.564723249984D+00
     .499375164509D-05  .118345898809D-01  .803917646408D-05  .515373411369D+04
     .540000000000D+06  .502914190292D-07 -.279936472985D+01  .173225998878D-06
     .945258868592D+00  .216906250000D+03  .767739974149D+00 -.844570894053D-08
     .367872466222D-09  .100000000000D+01  .171100000000D+04  .000000000000D+00
     .240000000000D+01  .000000000000D+00 -.279396772385D-08  .140000000000D+02
     .532806000000D+06  .400000000000D+01
11 12 10 27  6  0  0.0 -.316966325045D-03 -.386535248253D-11  .000000000000D+00
     .490000000000D+02 -.689062500000D+02  .610382567741D-08  .209849998567D+01
    -.373274087906D-05  .136904600076D-01  .872276723385D-05  .515368263054D+04
     .540000000000D+06  .242143869400D-07  .213532788185D+01 -.339001417160D-06
     .888210520185D+00  .171750000000D+03  .111169683738D+01 -.876893668998D-08
    -.480734310228D-09  .100000000000D+01  .171100000000D+04  .000000000000D+00
     .240000000000D+01  .000000000000D+00 -.116415321827D-07  .490000000000D+02
     .532806000000D+06  .400000000000D+01
13 12 10 27  6  0  0.0  .171550083905D-03 -.261479726760D-11  .000000000000D+00
     .620000000000D+02 -.286562500000D+02  .448947271884D-08 -.202121440682D+01
    -.130757689476D-05  .477709819097D-02  .278651714325D-05  .515359625435D+04
     .540000000000D+06 -.223517417908D-07 -.167509836282D+01  .128522515297D-06
     .983697124511D+00  .341531250000D+03  .207950222428D+01 -.823641450830D-08
    -.971469037013D-10  .100000000000D+01  .171100000000D+04  .000000000000D+00
     .240000000000D+01  .000000000000D+00 -.111758708954D-07  .620000000000D+02
     .532806000000D+06  .400000000000D+01
15 12 10 27  6  0  0.0 -.982079654932D-04 -.909494701773D-12  .000000000000D+00
     .580000000000D+02 -.100000000000D+02  .536450916763D-08 -.220042734139D+01
    -.653788447380D-06  .482671672944D-02  .246241688728D-05  .515365141487D+04
     .540000000000D+06 -.484287738800D-07 -.179580357262D+01 -.141561031342D-06
     .943250549783D+00  .326187500000D+03  .445101939597D-01 -.868429030698D-08
     .210723063176D-10  .100000000000D+01  .171100000000D+04  .000000000000D+00
     .240000000000D+01  .000000000000D+00 -.102445483208D-07  .580000000000D+02
     .532806000000D+06  .400000000000D+01
16 12 10 27  6  0  0.0 -.248615629971D-03 -.568434188608D-12  .000000000000D+00
     .430000000000D+02  .409375000000D+02  .404874007485D-08 -.633374458108D+00
     .209547579288D-05  .654903578106D-02  .951439142227D-05  .515376984787D+04
     .540000000000D+06  .147148966789D-06  .369102608068D+00 -.633299350739D-07
     .982648169823D+00  .209000000000D+03  .280665836687D-01 -.783425489959D-08
     .437518224390D-09  .100000000000D+01  .171100000000D+04  .000000000000D+00
     .240000000000D+01  .000000000000D+00 -.977888703346D-08  .430000000000D+02
     .532806000000D+06  .400000000000D+01
17 12 10 27  6  0  0.0  .841976143420D-04 -.363797880709D-11  .000000000000D+00
     .420000000000D+02 -.180000000000D+02  .483270130141D-08 -.154405668004D+01
    -.931322574615D-06  .766410748474D-02  .417418777943D-05  .515374425697D+04
     .540000000000D+06  .238418579102D-06  .140810982271D+01 -.819563865662D-07
     .963448313615D+00  .302593750000D+03 -.229417339796D+01 -.822105672573D-08
    -.165721188667D-09  .100000000000D+01  .171100000000D+04  .000000000000D+00
     .240000000000D+01  .000000000000D+00 -.107102096081D-07  .420000000000D+02
     .532806000000D+06  .400000000000D+01
18 12 10 27  6  0  0.0  .221656635404D-03  .181898940355D-11  .000000000000D+00
     .320000000000D+02  .968750000000D+02  .530557814148D-08 -.853027107774D-01
     .514276325703D-05  .136224210728D-01  .810623168945D-05  .515374400330D+04
     .540000000000D+06 -.353902578354D-07 -.281292936856D+01  .270083546638D-06
     .929055997563D+00  .211125000000D+03 -.213891203114D+01 -.869857661635D-08
     .401445293236D-09  .100000000000D+01  .171100000000D+04  .000000000000D+00
     .240000000000D+01  .000000000000D+00 -.107102096081D-07  .320000000000D+02
     .532806000000D+06  .400000000000D+01
19 12 10 27  6  0  0.0 -.316617544740D-03 -.341060513165D-11  .000000000000D+00
     .109000000000D+03 -.265937500000D+02  .489020369661D-08 -.234792651170D+01
    -.135973095894D-05  .862905010581D-02  .460818409920D-05  .515362441444D+04
     .540000000000D+06 -.242143869400D-07  .146071617690D+01 -.782310962677D-07
     .960751100831D+00  .291906250000D+03  .266980906609D+00 -.827927343640D-08
    -.142505935944D-09  .100000000000D+01  .171100000000D+04  .000000000000D+00
     .240000000000D+01  .000000000000D+00 -.144354999065D-07  .109000000000D+03
     .532806000000D+06  .400000000000D+01
20 12 10 27  6  0  0.0  .716270878911D-04  .102318153949D-11  .000000000000D+00
     .500000000000D+02  .101968750000D+03  .512949937852D-08  .403335483605D+00
     .509992241859D-05  .517842802219D-02  .906176865101D-05  .515361830521D+04
     .540000000000D+06 -.428408384323D-07 -.286652175441D+01 -.186264514923D-08
     .929667539745D+00  .187781250000D+03  .127422738123D+01 -.851571185644D-08
     .366086677551D-09  .100000000000D+01  .171100000000D+04  .000000000000D+00
     .240000000000D+01  .000000000000D+00 -.791624188423D-08  .500000000000D+02
     .532806000000D+06  .400000000000D+01
21 12 10 27  6  0  0.0 -.258426181972D-03 -.238742359215D-11  .000000000000D+00
     .130000000000D+02 -.220937500000D+02  .508021161121D-08  .103754747694D+01
    -.102072954178D-05  .194159159437D-01  .109784305096D-04  .515378422546D+04
     .540000000000D+06 -.268220901489D-06  .242121715677D+01  .912696123123D-07
     .931497252348D+00  .158562500000D+03 -.220878293990D+01 -.850142554707D-08
    -.571809532448D-09  .100000000000D+01  .171100000000D+04  .000000000000D+00
     .240000000000D+01  .000000000000D+00 -.111758708954D-07  .130000000000D+02
     .532806000000D+06  .400000000000D+01
22 12 10 27  6  0  0.0  .150096602738D-03  .568434188608D-12  .000000000000D+00
     .460000000000D+02  .106125000000D+03  .526700510619D-08 -.819445987112D+00
     .564008951187D-05  .623466086108D-02  .793486833572D-05  .515367916107D+04
     .540000000000D+06  .204890966415D-07 -.280987322737D+01  .128522515297D-06
     .926788224381D+00  .210281250000D+03 -.201007151927D+01 -.859071498062D-08
     .425017703693D-09  .100000000000D+01  .171100000000D+04  .000000000000D+00
     .240000000000D+01  .000000000000D+00 -.172294676304D-07  .460000000000D+02
     .532806000000D+06  .400000000000D+01
23 12 10 27  6  0  0.0  .150211155415D-03 -.386535248253D-11  .000000000000D+00
     .550000000000D+02 -.180000000000D+02  .506092509356D-08 -.272634987409D+01
    -.936910510063D-06  .822568929289D-02  .236928462982D-05  .515356695747D+04
     .540000000000D+06 -.119209289551D-06 -.175778838383D+01 -.745058059692D-07
     .958057126948D+00  .337531250000D+03 -.291815869423D+01 -.848928218411D-08
    -.289297764699D-10  .100000000000D+01  .171100000000D+04  .000000000000D+00
     .240000000000D+01  .000000000000D+00 -.204890966415D-07  .550000000000D+02
     .532806000000D+06  .400000000000D+01
24 12 10 27  6  0  0.0  .276928767562D-05  .159161572810D-11  .000000000000D+00
     .210000000000D+02 -.889062500000D+02  .440625496678D-08 -.103759992694D+00
    -.441819429398D-05  .114845344797D-03  .979565083981D-05  .517666623497D+04
     .540000000000D+06  .391155481339D-07 -.731012559962D+00  .000000000000D+00
     .959433680195D+00  .186031250000D+03 -.130655069371D+01 -.783996942334D-08
    -.246438836595D-09  .100000000000D+01  .171100000000D+04  .000000000000D+00
     .240000000000D+01  .630000000000D+02  .465661287308D-08  .210000000000D+02
     .532806000000D+06  .400000000000D+01
25 12 10 27  6  0  0.0  .482709147036D-04  .170530256582D-11  .000000000000D+00
     .114000000000D+03  .395625000000D+02  .435553856852D-08  .482683137644D+00
     .208057463169D-05  .182390352711D-02  .930763781071D-05  .515364116096D+04
     .540000000000D+06  .745058059692D-08  .315041046838D+00  .540167093277D-07
     .970747445356D+00  .203187500000D+03  .729972167734D+00 -.796461747257D-08
     .377872882779D-09  .100000000000D+01  .171100000000D+04  .000000000000D+00
     .340000000000D+01  .000000000000D+00  .512227416039D-08  .114000000000D+03
     .532806000000D+06  .400000000000D+01
